0 SL-12 DEB
1 25804U 87079P   13282.77025587  .00005349  00000-0  31316-2 0    85
2 25804 065.0236 021.9942 4565679 120.5347 346.2445 06.20850284316197
0 SL-12 DEB
1 25804U 87079P   13283.42093652  .00005640  00000-0  33111-2 0    96
2 25804 065.0238 021.5752 4565401 120.4755 000.5007 06.20869077316238
0 SL-12 DEB
1 25804U 87079P   13283.73613550  .00005798  00000-0  34054-2 0   108
2 25804 065.0238 021.3748 4565362 120.4508 344.9879 06.20872671316251
0 SL-12 DEB
1 25804U 87079P   13285.50988773  .00005053  00000-0  29801-2 0   127
2 25804 065.0256 020.2464 4565085 120.3045 349.5093 06.20896505316364
0 SL-12 DEB
1 25804U 87079P   13286.79781606  .00006534  00000-0  38511-2 0   139
2 25804 065.0263 019.4270 4564941 120.1964 348.3076 06.20906069316449
0 SL-12 DEB
1 25804U 87079P   13287.76357880  .00006677  00000-0  39380-2 0   144
2 25804 065.0265 018.8148 4564709 120.1153 347.0051 06.20930867316509
0 SL-12 DEB
1 25804U 87079P   13288.40692219  .00007294  00000-0  43062-2 0   153
2 25804 065.0265 018.4012 4564445 120.0617 345.0584 06.20950999316547
0 SL-12 DEB
1 25804U 87079P   13289.53710093  .00005579  00000-0  33042-2 0   161
2 25804 065.0268 017.6857 4564161 119.9597 351.4299 06.20967003316613
0 SL-12 DEB
1 25804U 87079P   13291.46756191  .00005720  00000-0  33821-2 0   179
2 25804 065.0280 016.4556 4564113 119.8174 346.9135 06.20988733316731
0 SL-12 DEB
1 25804U 87079P   13292.75585947  .00006936  00000-0  41068-2 0   184
2 25804 065.0287 015.6354 4563878 119.7065 346.9920 06.21003874316816
0 SL-12 DEB
1 25804U 87079P   13293.39864880  .00006317  00000-0  37459-2 0   194
2 25804 065.0291 015.2243 4563749 119.6535 343.9909 06.21017422316854
0 SL-12 DEB
1 25804U 87079P   13294.70115971  .00006430  00000-0  38411-2 0   207
2 25804 065.0289 014.3951 4563140 119.5331 015.9377 06.21035221316936
0 SL-12 DEB
1 25804U 87079P   13295.49515486  .00005751  00000-0  34270-2 0   214
2 25804 065.0292 013.8932 4563368 119.4857 351.0400 06.21050027316984
